#dP2018  2 21  0  0  0.00000000      96 __u+U ITR00 FIT  IAC
## 1989 259200.00000000   900.00000000 58170 0.0000000000000
+   88   C01C02C03C04C05C06C07C08C09C10C11C12C13C14E01E02E03
+        E04E05E07E08E09E11E12E14E18E19E24E26E30G01G02G03G04
+        G05G06G07G08G09G10G11G12G13G14G15G16G17G19G20G21G22
+        G23G24G25G26G27G28G29G30G31G32J01J02J03R01R02R03R04
+        R05R06R07R08R09R10R11R13R14R15R16R17R18R19R20R21R22
+        R23R24R26  0  0  0  0  0  0  0  0  0  0  0  0  0  0
++         0  0  0  0  0  0  0  0  0  0  0  0  0  0  0  0  0
++         0  0  0  0  0  0  0  0  0  0  0  0  0  0  0  0  0
++         0  0  0  0  0  0  0  0  0  0  0  0  0  0  0  0  0
++         0  0  0  0  0  0  0  0  0  0  0  0  0  0  0  0  0
++         0  0  0  0  0  0  0  0  0  0  0  0  0  0  0  0  0
++         0  0  0  0  0  0  0  0  0  0  0  0  0  0  0  0  0
%c M  cc GPS ccc cccc cccc cccc cccc ccccc ccccc ccccc ccccc
%c cc cc ccc ccc cccc cccc cccc cccc ccccc ccccc ccccc ccccc
%f  0.0000000  0.000000000  0.00000000000  0.000000000000000
%f  0.0000000  0.000000000  0.00000000000  0.000000000000000
%i    0    0    0    0      0      0      0      0         0
%i    0    0    0    0      0      0      0      0         0
/*                                                          
/*   RSA / INFORMATION & ANALYSIS CENTER (IAC) OF MCC       
/*   ULTRA-RAPID DETERMINATION                              
/* PCV:IGS14_1984 OL/AL:FES2004  NONE     YN ORB:CoN CLK:CoN
*  2018 02 21 12 30  0.00000000
PC01 -32239.615923  27160.763119   1075.280788    394.984056
PC02   4383.969002  41941.168820   -386.116615   -242.246636
PC03 -14857.806003  39456.555948    898.162450    -47.492313
PC04 -39643.062265  14421.414065    530.253751   -102.555773
PC05  21812.812364  36074.819443   -609.708161   -159.518911
PC06  -9688.472799  22800.935980 -33877.103139   -680.823394
PC07 -24162.168834  29599.293689  17497.973383   -319.556730
PC08 -10841.816081  37705.636403  15812.509281    188.507417
PC09   4823.907214  29181.607345 -29796.854990   -382.333804
PC10 -10924.160879  30401.033597  27028.718479    -32.386113
PC11  16935.226432   2455.834084 -21997.658145   -400.266904
PC12  15958.370923  20917.410841  -9375.518445    383.640338
PC13  -1660.953226  42231.360542   1519.180347   -215.922546
PC14  27702.934417    804.535436   3026.663975    228.908897
PE01 -25200.066050   5427.100286 -14554.245856   -281.842344
PE02  25197.086197  -5440.267064  14536.376150      5.376748
PE03  27244.975629   5562.225756  10156.565133     -1.670894
PE04 -16354.039690   9810.201784 -22638.997622     19.649113
PE05  22200.235715  17722.085850  -8316.165256    317.693424
PE07  -4178.618147 -19489.127748  21886.338721     80.325603
PE08  16223.940720  -9831.961443  22724.351257   6637.593681
PE09   4379.031608  19316.698817 -21996.178459   6868.650109
PE11    685.262633  29507.717202   2089.633981   1847.834585
PE12 -11386.988816  19719.108177  18912.465638   3556.540860
PE14 -19792.695196 -13909.736837  10172.616345   6627.385466
PE18  22202.897046   1430.039036 -21412.236871   6410.999632
PE19 -27496.210995  -6946.044449  -8496.358917     19.631801
PE24  -7037.511251  20468.032565  20190.505167   6850.564124
PE26 -12078.923379 -22096.908805  15564.534317   6245.172363
PE30  22855.683649 -18341.350676  -4130.096761   6059.224382
PG01 -13721.603184  21469.487724   6805.469781    -30.062623
PG02  15912.324936   -863.557747 -20656.798372    194.089134
PG03 -18343.859437  12763.312991 -14330.648243     13.872918
PG04 -18459.181403  -9352.545390 -17053.676043     39.221434
PG05  26381.368286  -1719.895633  -3633.676013    -13.777700
PG06  10449.295653  12554.827245 -20904.291356    414.171718
PG07  -4010.933516  24703.618491   8391.434855    233.507609
PG08 -14254.337776   6043.343939  21652.900869    -91.963680
PG09   4286.240851  21793.812898 -14592.995449    502.490230
PG10 -13631.478353 -11806.367253  19583.494344    162.536916
PG11  -9785.565795  20468.922382  13363.050283   -736.582484
PG12  20305.441249 -10582.720314 -13457.895070    349.129158
PG13  17837.399373   3885.506038  19169.946498    -95.608380
PG14 -18477.904629 -17206.558021  -8238.363543    -94.252410
PG15  14101.712313  -7828.607907  20929.861379   -356.888718
PG16 -26598.491202   -498.839072  -3314.652648     31.796607
PG17  15216.134212  21856.396237    428.493920   -121.442816
PG19  17860.689730  17974.809069  -7884.366950   -455.590538
PG20  18373.155816 -14362.023181  12528.105068    501.443521
PG21     -8.542040 -24496.124737  11036.609143   -427.846674
PG22 -23152.433162  10461.937456  -7521.391585   -299.145906
PG23  -7270.685928  14689.093423 -20553.423259   -218.885717
PG24  14565.930051 -19654.963941   9868.999519    -46.338232
PG25   7326.314970 -15164.370346 -20645.066290   -542.293335
PG26 -22417.959409  -5744.927916 -13150.893581   -242.638555
PG27 -19827.041511  -7398.437248  16142.470183    367.807776
PG28   9122.351828  13675.706545  21480.779752    690.760692
PG29     50.088165 -20136.752897 -17341.528659    493.046208
PG30   2179.611252  21561.039226  15259.940442    101.532477
PG31 -11177.051970 -11222.190848 -21211.377411    140.225777
PG32 -16529.759729 -20841.529831    192.264558   -531.572145
PJ01 -33195.548983  17983.209747 -14082.706188 999999.999999
PJ02 -26754.209162  32058.519642  -1743.873254     -0.082006
PJ03 -25658.535689  23016.455687  29406.622302    -16.252015
PR01  22375.110408    350.122245  12255.916585     22.401412
PR02   6244.093018  -9419.110587  22898.004594    296.356247
PR03 -12357.127446 -12885.169746  18272.468095    124.750053
PR04 -23900.820801  -8557.084359   2585.225406    250.721351
PR05 -21508.003066    663.489817 -13702.453519   -251.971264
PR06  -5315.664168   9983.359155 -22878.316757    127.447420
PR07  12695.693545  12846.414802 -17966.694268    -30.659715
PR08  23719.810550   8824.812945  -3134.809049     38.338845
PR09 -14534.412181  18953.492795   8882.183813     47.019675
PR10   -459.348637  13718.424317  21458.917401     18.795676
PR11  14325.991604    566.596385  21117.706971    -22.336019
PR13  13854.496914 -19188.061089  -9535.671401     -7.708643
PR14    568.555642 -14103.535770 -21239.416031     24.877208
PR15 -11709.206808  -3267.820241 -22436.655218     -6.693082
PR16 -20039.870788  12956.268893  -9198.542528     86.142066
PR17  -6451.023531 -24581.039942   2026.828138    111.001793
PR18 -11455.912979 -14938.372210  17267.896023    185.656713
PR19 -10072.341922   3266.509548  23212.989498    -45.263677
PR20  -2672.262256  20566.690579  14825.446043   -328.040867
PR21   6576.103034  24553.690537  -2244.889315     28.232029
PR22  11539.276793  13130.031562 -18507.820648    -20.634967
PR23   9032.019360  -7148.510227 -22760.744852    137.568892
PR24   1964.797575 -21087.441043 -14249.322482   -162.749479
PR26  -2411.087922  20518.628238  14990.018044 999999.999999
EOF
